NORAD_CAT_ID,OBJECT_NAME,OBJECT_TYPE,EPOCH,MEAN_MOTION,ECCENTRICITY,INCLINATION,RA_OF_ASC_NODE,ARG_OF_PERICENTER,MEAN_ANOMALY,BSTAR,MEAN_MOTION_DOT,MEAN_MOTION_DDOT,TLE_LINE0,TLE_LINE1,TLE_LINE2,SEMIMAJOR_AXIS,PERIOD,APOGEE,PERIGEE,DECAYED
52700.0,STARLINK-4034,PAYLOAD,2022-10-10 05:08:58,15.08830593,0.0002197,53.2194,344.756,42.8787,317.2376,0.00016618,2.357e-05,0.0,0 STARLINK-4034,1 52700U 22053AW  22283.21456791  .00002357  00000-0  16618-3 0  9990,2 52700  53.2194 344.7560 0002197  42.8787 317.2376 15.08830593 22504,6917.909000000002,95.438,541.294,538.254,0.0
52700.0,STARLINK-4034,PAYLOAD,2022-10-10 11:30:31,15.08848319,0.0002254,53.2182,343.5672,45.8714,314.2463,0.00056615,8.736e-05,0.0,0 STARLINK-4034,1 52700U 22053AW  22283.47952681  .00008736  00000-0  56615-3 0  9995,2 52700  53.2182 343.5672 0002254  45.8714 314.2463 15.08848319 22957,6917.855,95.437,541.279,538.161,0.0
52700.0,STARLINK-4034,PAYLOAD,2022-10-10 21:02:50,15.08839397,0.0002085,53.2186,341.7829,47.9012,312.2157,0.00039916,6.07e-05,0.0,0 STARLINK-4034,1 52700U 22053AW  22283.87697111  .00006070  00000-0  39916-3 0  9997,2 52700  53.2186 341.7829 0002085  47.9012 312.2157 15.08839397 23013,6917.882,95.438,541.19,538.305,0.0
52700.0,STARLINK-4034,PAYLOAD,2022-10-11 03:24:23,15.08829183,0.000194,53.2182,340.5942,44.7254,315.3894,3.2889e-05,2.35e-06,0.0,0 STARLINK-4034,1 52700U 22053AW  22284.14193435  .00000235  00000-0  32889-4 0  9998,2 52700  53.2182 340.5942 0001940  44.7254 315.3894 15.08829183 22646,6917.913000000001,95.438,541.121,538.436,0.0
52700.0,STARLINK-4034,PAYLOAD,2022-10-11 12:56:42,15.08819406,0.0001938,53.2186,338.8104,40.6852,319.4284,-9.5555e-05,-1.808e-05,0.0,0 STARLINK-4034,1 52700U 22053AW  22284.53938366 -.00001808  00000-0 -95555-4 0  9999,2 52700  53.2186 338.8104 0001938  40.6852 319.4284 15.08819406 22708,6917.943,95.439,541.149,538.4680000000002,0.0
52700.0,STARLINK-4034,PAYLOAD,2022-10-12 03:15:11,15.08834003,0.0002375,53.2179,336.1333,46.2162,313.9026,8.146e-05,1.008e-05,0.0,0 STARLINK-4034,1 52700U 22053AW  22285.13554510  .00001008  00000-0  81460-4 0  9991,2 52700  53.2179 336.1333 0002375  46.2162 313.9026 15.08834003 22799,6917.899,95.438,541.4069999999998,538.121,0.0
52700.0,STARLINK-4034,PAYLOAD,2022-10-12 12:47:29,15.08849671,0.0002253,53.2173,334.3489,47.0367,313.0813,0.0010363,0.00016248,0.0,0 STARLINK-4034,1 52700U 22053AW  22285.53298591  .00016248  00000-0  10363-2 0  9993,2 52700  53.2173 334.3489 0002253  47.0367 313.0813 15.08849671 23261,6917.851,95.437,541.274,538.1569999999998,0.0
52700.0,STARLINK-4034,PAYLOAD,2022-10-13 04:41:21,15.08839871,0.0002355,53.2175,331.3763,39.4784,320.6379,0.00013191,1.812e-05,0.0,0 STARLINK-4034,1 52700U 22053AW  22286.19538702  .00001812  00000-0  13191-3 0  9991,2 52700  53.2175 331.3763 0002355  39.4784 320.6379 15.08839871 22953,6917.880999999999,95.438,541.375,538.117,0.0
52700.0,STARLINK-4034,PAYLOAD,2022-10-13 09:27:30,15.08836369,0.0002099,53.2179,330.4834,42.565,317.5504,0.00010511,1.385e-05,0.0,0 STARLINK-4034,1 52700U 22053AW  22286.39410814  .00001385  00000-0  10511-3 0  9994,2 52700  53.2179 330.4834 0002099  42.5650 317.5504 15.08836369 23391,6917.891,95.438,541.2090000000002,538.304,0.0
52700.0,STARLINK-4034,PAYLOAD,2022-10-13 20:35:12,15.08851165,0.0002295,53.2177,328.4016,45.6754,314.4426,0.0004343,6.633e-05,0.0,0 STARLINK-4034,1 52700U 22053AW  22286.85778416  .00006633  00000-0  43430-3 0  9997,2 52700  53.2177 328.4016 0002295  45.6754 314.4426 15.08851165 23463,6917.846,95.437,541.299,538.124,0.0
52700.0,STARLINK-4034,PAYLOAD,2022-10-14 06:07:31,15.08851896,0.0002268,53.2174,326.6165,42.2565,317.8602,0.00044057,6.733e-05,0.0,0 STARLINK-4034,1 52700U 22053AW  22287.25522136  .00006733  00000-0  44057-3 0  9995,2 52700  53.2174 326.6165 0002268  42.2565 317.8602 15.08851896 23114,6917.844,95.437,541.278,538.14,0.0
52700.0,STARLINK-4034,PAYLOAD,2022-10-14 09:18:17,15.08853908,0.000234,53.2177,326.0229,43.6486,316.4691,0.00035972,5.444e-05,0.0,0 STARLINK-4034,1 52700U 22053AW  22287.38770047  .00005444  00000-0  35972-3 0  9999,2 52700  53.2177 326.0229 0002340  43.6486 316.4691 15.08853908 23546,6917.8380000000025,95.437,541.322,538.0840000000002,0.0
52700.0,STARLINK-4034,PAYLOAD,2022-10-15 02:47:31,15.08843268,0.0002282,53.2182,322.751,46.3867,313.7314,4.4503e-05,4.2e-06,0.0,0 STARLINK-4034,1 52700U 22053AW  22288.11634128  .00000420  00000-0  44503-4 0  9990,2 52700  53.2182 322.7510 0002282  46.3867 313.7314 15.08843268 23243,6917.87,95.437,541.314,538.1569999999998,0.0
52700.0,STARLINK-4034,PAYLOAD,2022-10-15 12:19:50,15.08852826,0.0002223,53.2182,320.9677,43.1106,317.006,0.00026879,3.994e-05,0.0,0 STARLINK-4034,1 52700U 22053AW  22288.51377549  .00003994  00000-0  26879-3 0  9999,2 52700  53.2182 320.9677 0002223  43.1106 317.0060 15.08852826 23710,6917.840999999999,95.437,541.244,538.168,0.0
52700.0,STARLINK-4034,PAYLOAD,2022-10-15 13:55:13,15.08855405,0.000226,53.2178,320.6703,42.8101,317.3067,0.00027554,4.102e-05,0.0,0 STARLINK-4034,1 52700U 22053AW  22288.58001400  .00004102  00000-0  27554-3 0  9999,2 52700  53.2178 320.6703 0002260  42.8101 317.3067 15.08855405 23721,6917.833000000001,95.437,541.262,538.135,0.0
52700.0,STARLINK-4034,PAYLOAD,2022-10-16 12:10:37,15.0883087,0.0003695,53.2217,316.5094,12.3788,347.7294,3.2912e-05,2.35e-06,0.0,0 STARLINK-4034,1 52700U 22053AW  22289.50738368  .00000235  00000-0  32912-4 0  9990,2 52700  53.2217 316.5094 0003695  12.3788 347.7294 15.08830870 23456,6917.908,95.438,542.3290000000002,537.217,0.0
52700.0,STARLINK-4034,PAYLOAD,2022-10-17 12:01:25,15.0883692,0.0002138,53.2177,312.0466,37.1604,322.9535,6.4583e-05,7.400000000000001e-06,0.0,0 STARLINK-4034,1 52700U 22053AW  22290.50098428  .00000740  00000-0  64583-4 0  9998,2 52700  53.2177 312.0466 0002138  37.1604 322.9535 15.08836920 24016,6917.89,95.438,541.234,538.276,0.0
52700.0,STARLINK-4034,PAYLOAD,2022-10-17 19:58:20,15.08844558,0.0002151999999999,53.2176,310.56,37.728,322.3863,0.00024246,3.573e-05,0.0,0 STARLINK-4034,1 52700U 22053AW  22290.83218290  .00003573  00000-0  24246-3 0  9993,2 52700  53.2176 310.5600 0002152  37.7280 322.3863 15.08844558 24069,6917.866,95.437,541.22,538.243,0.0
52700.0,STARLINK-4034,PAYLOAD,2022-10-18 05:30:39,15.08834683,0.0002093,53.2188,308.7757,37.9409,322.173,0.0001446,2.014e-05,0.0,0 STARLINK-4034,1 52700U 22053AW  22291.22962622  .00002014  00000-0  14460-3 0  9998,2 52700  53.2188 308.7757 0002093  37.9409 322.1730 15.08834683 23713,6917.897,95.438,541.21,538.314,0.0
52700.0,STARLINK-4034,PAYLOAD,2022-10-18 10:16:49,15.08839711,0.0002021999999999,53.2174,307.8838,38.3573,321.7563,0.00029718,4.445e-05,0.0,0 STARLINK-4034,1 52700U 22053AW  22291.42834760  .00004445  00000-0  29718-3 0  9993,2 52700  53.2174 307.8838 0002022  38.3573 321.7563 15.08839711 24152,6917.880999999999,95.438,541.145,538.347,0.0
52700.0,STARLINK-4034,PAYLOAD,2022-10-19 08:32:12,15.08844123,0.000218,53.2172,303.7208,37.8477,322.2668,0.00020816,3.027e-05,0.0,0 STARLINK-4034,1 52700U 22053AW  22292.35570566  .00003027  00000-0  20816-3 0  9992,2 52700  53.2172 303.7208 0002180  37.8477 322.2668 15.08844123 23882,6917.868,95.437,541.241,538.225,0.0
52700.0,STARLINK-4034,PAYLOAD,2022-10-20 08:22:59,15.08844393,0.0002335999999999,53.2169,299.2611,35.022,325.0925,5.3368e-05,5.61e-06,0.0,0 STARLINK-4034,1 52700U 22053AW  22293.34930298  .00000561  00000-0  53368-4 0  9993,2 52700  53.2169 299.2611 0002336  35.0220 325.0925 15.08844393 24443,6917.8669999999975,95.437,541.3480000000002,538.116,0.0
52700.0,STARLINK-4034,PAYLOAD,2022-10-20 17:55:18,15.08848356,0.0002278,53.2169,297.4771,38.959,321.1566,0.00020075,2.909e-05,0.0,0 STARLINK-4034,1 52700U 22053AW  22293.74674122  .00002909  00000-0  20075-3 0  9994,2 52700  53.2169 297.4771 0002278  38.9590 321.1566 15.08848356 24505,6917.855,95.437,541.2959999999998,538.144,0.0
52700.0,STARLINK-4034,PAYLOAD,2022-10-21 09:49:09,15.08844076,0.0002315,53.2169,294.5036,41.499,318.6178,0.00013433,1.85e-05,0.0,0 STARLINK-4034,1 52700U 22053AW  22294.40914264  .00001850  00000-0  13433-3 0  9996,2 52700  53.2169 294.5036 0002315  41.4990 318.6178 15.08844076 24192,6917.868,95.437,541.3340000000002,538.131,0.0
52700.0,STARLINK-4034,PAYLOAD,2022-10-21 11:24:33,15.08844102,0.0002309,53.2167,294.2063,41.1437,318.9729,0.0001281,1.751e-05,0.0,0 STARLINK-4034,1 52700U 22053AW  22294.47538241  .00001751  00000-0  12810-3 0  9998,2 52700  53.2167 294.2063 0002309  41.1437 318.9729 15.08844102 24615,6917.868,95.437,541.33,538.136,0.0
52700.0,STARLINK-4034,PAYLOAD,2022-10-21 17:46:05,15.08848762,0.0002372,53.2168,293.0168,40.9798,319.1372,0.00017997,2.578e-05,0.0,0 STARLINK-4034,1 52700U 22053AW  22294.74033990  .00002578  00000-0  17997-3 0  9998,2 52700  53.2168 293.0168 0002372  40.9798 319.1372 15.08848762 24653,6917.854,95.437,541.36,538.078,0.0
52700.0,STARLINK-4034,PAYLOAD,2022-10-22 09:39:56,15.0884646,0.0002472,53.2181,290.0426,33.0838,327.0308,1.6058e-05,-3.3e-07,0.0,0 STARLINK-4034,1 52700U 22053AW  22295.40273850 -.00000033  00000-0  16058-4 0  9996,2 52700  53.2181 290.0426 0002472  33.0838 327.0308 15.08846460 24752,6917.861,95.437,541.436,538.016,0.0
52700.0,STARLINK-4034,PAYLOAD,2022-10-23 04:44:33,15.08844959,0.0002223,53.2182,286.4741,37.5012,322.6135,5.366e-05,5.66e-06,0.0,0 STARLINK-4034,1 52700U 22053AW  22296.19761546  .00000566  00000-0  53660-4 0  9997,2 52700  53.2182 286.4741 0002223  37.5012 322.6135 15.08844959 24467,6917.865,95.437,541.268,538.192,0.0
52700.0,STARLINK-4034,PAYLOAD,2022-10-23 09:30:43,15.08844184,0.0002177999999999,53.2182,285.5814,39.7891,320.3261,0.00012751,1.742e-05,0.0,0 STARLINK-4034,1 52700U 22053AW  22296.39633366  .00001742  00000-0  12751-3 0  9999,2 52700  53.2182 285.5814 0002178  39.7891 320.3261 15.08844184 24900,6917.868,95.437,541.239,538.226,0.0
